NORAD_CAT_ID,OBJECT_NAME,OBJECT_TYPE,EPOCH,MEAN_MOTION,ECCENTRICITY,INCLINATION,RA_OF_ASC_NODE,ARG_OF_PERICENTER,MEAN_ANOMALY,BSTAR,MEAN_MOTION_DOT,MEAN_MOTION_DDOT,TLE_LINE0,TLE_LINE1,TLE_LINE2,SEMIMAJOR_AXIS,PERIOD,APOGEE,PERIGEE,DECAYED
55435.0,STARLINK-5626,PAYLOAD,2023-10-06 21:09:10,14.9832727,0.0002576,70.0013,175.3485,260.2659,99.821,-3.4177e-05,-5.01e-06,0.0,0 STARLINK-5626,1 55435U 23014AW  23279.88137428 -.00000501  00000-0 -34177-4 0  9990,2 55435  70.0013 175.3485 0002576 260.2659  99.8210 14.98327270 38539,6950.201,96.107,573.857,570.276,0.0
55435.0,STARLINK-5626,PAYLOAD,2023-10-07 09:58:14,14.98380111,0.0002571,70.0019,174.0025,277.5553,82.5314,-0.0009243,-0.00011118,0.0,0 STARLINK-5626,1 55435U 23014AW  23280.41544039 -.00011118  00000-0 -92430-3 0  9992,2 55435  70.0019 174.0025 0002571 277.5553  82.5314 14.98380111 38616,6950.038,96.104,573.69,570.116,0.0
55435.0,STARLINK-5626,PAYLOAD,2023-10-07 17:58:55,14.98328904,0.0002705,70.0012,173.1597,269.0694,91.0155,0.00010332,1.14e-05,0.0,0 STARLINK-5626,1 55435U 23014AW  23280.74925078  .00001140  00000-0  10332-3 0  9997,2 55435  70.0012 173.1597 0002705 269.0694  91.0155 14.98328904 37725,6950.196,96.107,573.941,570.181,0.0
55435.0,STARLINK-5626,PAYLOAD,2023-10-07 21:11:11,14.9833041,0.0002615,70.0013,172.8232,269.2975,90.7885,8.0109e-05,8.63e-06,0.0,0 STARLINK-5626,1 55435U 23014AW  23280.88277071  .00000863  00000-0  80109-4 0  9996,2 55435  70.0013 172.8232 0002615 269.2975  90.7885 14.98330410 38689,6950.192,96.107,573.874,570.239,0.0
55435.0,STARLINK-5626,PAYLOAD,2023-10-08 01:59:35,14.98332039,0.0002532,70.0009,172.3189,261.4684,98.6188,7.3487e-05,7.84e-06,0.0,0 STARLINK-5626,1 55435U 23014AW  23281.08304966  .00000784  00000-0  73487-4 0  9996,2 55435  70.0009 172.3189 0002532 261.4684  98.6188 14.98332039 38715,6950.187,96.107,573.811,570.292,0.0
55435.0,STARLINK-5626,PAYLOAD,2023-10-08 18:00:55,14.98331777,0.0002872,70.0001,170.6338,271.0265,89.0565,9.9745e-05,1.097e-05,0.0,0 STARLINK-5626,1 55435U 23014AW  23281.75064800  .00001097  00000-0  99745-4 0  9993,2 55435  70.0001 170.6338 0002872 271.0265  89.0565 14.98331777 37870,6950.187,96.107,574.048,570.056,0.0
55435.0,STARLINK-5626,PAYLOAD,2023-10-08 21:13:12,14.98333555,0.0002716,70.0008,170.2988,265.8369,94.248,7.8338e-05,8.42e-06,0.0,0 STARLINK-5626,1 55435U 23014AW  23281.88416740  .00000842  00000-0  78338-4 0  9993,2 55435  70.0008 170.2988 0002716 265.8369  94.2480 14.98333555 38834,6950.182,96.107,573.935,570.159,0.0
55435.0,STARLINK-5626,PAYLOAD,2023-10-09 10:02:16,14.98336243,0.0002936,69.9996,168.9512,278.4125,81.6701,-7.531e-05,-9.92e-06,0.0,0 STARLINK-5626,1 55435U 23014AW  23282.41824829 -.00000992  00000-0 -75310-4 0  9999,2 55435  69.9996 168.9512 0002936 278.4125  81.6701 14.98336243 38910,6950.174,96.107,574.079,569.998,0.0
55435.0,STARLINK-5626,PAYLOAD,2023-10-09 18:02:58,14.98318311,0.0002975,70.0007,168.1113,271.4878,88.594,-0.0001137,-1.449e-05,0.0,0 STARLINK-5626,1 55435U 23014AW  23282.75206118 -.00001449  00000-0 -11370-3 0  9994,2 55435  70.0007 168.1113 0002975 271.4878  88.5940 14.98318311 38025,6950.229,96.108,574.162,570.026,0.0
55435.0,STARLINK-5626,PAYLOAD,2023-10-09 21:15:14,14.98318736,0.0002918,70.0003,167.7745,272.264,87.8184,-0.00011015,-1.407e-05,0.0,0 STARLINK-5626,1 55435U 23014AW  23282.88558185 -.00001407  00000-0 -11015-3 0  9992,2 55435  70.0003 167.7745 0002918 272.2640  87.8184 14.98318736 38988,6950.228,96.108,574.121,570.065,0.0
55435.0,STARLINK-5626,PAYLOAD,2023-10-10 10:04:18,14.98326792,0.0002682,70.0,166.4268,265.5095,94.5758,-5.9465e-05,-8.02e-06,0.0,0 STARLINK-5626,1 55435U 23014AW  23283.41965760 -.00000802  00000-0 -59465-4 0  9993,2 55435  70.0000 166.4268 0002682 265.5095  94.5758 14.98326792 38127,6950.203,96.107,573.932,570.204,0.0
55435.0,STARLINK-5626,PAYLOAD,2023-10-10 18:04:57,14.9833621,0.0003186,69.9994,165.5857,270.7344,89.345,2.3083e-05,1.82e-06,0.0,0 STARLINK-5626,1 55435U 23014AW  23283.75344873  .00000182  00000-0  23083-4 0  9992,2 55435  69.9994 165.5857 0003186 270.7344  89.3450 14.98336210 38177,6950.174,96.107,574.253,569.824,0.0
55435.0,STARLINK-5626,PAYLOAD,2023-10-10 21:17:13,14.98336833,0.000307,70.0,165.2494,270.6604,89.4203,4.323e-05,4.23e-06,0.0,0 STARLINK-5626,1 55435U 23014AW  23283.88696724  .00000423  00000-0  43230-4 0  9995,2 55435  70.0000 165.2494 0003070 270.6604  89.4203 14.98336833 39137,6950.172,96.107,574.17,569.903,0.0
55435.0,STARLINK-5626,PAYLOAD,2023-10-11 02:05:37,14.98345687,0.0003066,69.9995,164.7438,270.7733,89.3074,0.00012337,1.38e-05,0.0,0 STARLINK-5626,1 55435U 23014AW  23284.08723877  .00001380  00000-0  12337-3 0  9994,2 55435  69.9995 164.7438 0003066 270.7733  89.3074 14.98345687 38229,6950.144,96.106,574.14,569.878,0.0
55435.0,STARLINK-5626,PAYLOAD,2023-10-11 10:06:18,14.98354404,0.000227,70.0021,163.9042,282.4511,77.6394,-0.00031958,-3.906e-05,0.0,0 STARLINK-5626,1 55435U 23014AW  23284.42104396 -.00003906  00000-0 -31958-3 0  9999,2 55435  70.0021 163.9042 0002270 282.4511  77.6394 14.98354404 39216,6950.117,96.105,573.56,570.405,0.0
55435.0,STARLINK-5626,PAYLOAD,2023-10-11 18:06:59,14.98322596,0.0002846,70.0024,163.0626,276.9884,83.0951,0.00013755,1.548e-05,0.0,0 STARLINK-5626,1 55435U 23014AW  23284.75485407  .00001548  00000-0  13755-3 0  9993,2 55435  70.0024 163.0626 0002846 276.9884  83.0951 14.98322596 38326,6950.216,96.107,574.059,570.103,0.0
55435.0,STARLINK-5626,PAYLOAD,2023-10-12 02:07:39,14.98327885,0.0002956,69.9997,162.2193,268.0364,92.0457,0.00015945,1.81e-05,0.0,0 STARLINK-5626,1 55435U 23014AW  23285.08864996  .00001810  00000-0  15945-3 0  9999,2 55435  69.9997 162.2193 0002956 268.0364  92.0457 14.98327885 39316,6950.199,96.107,574.119,570.01,0.0
55435.0,STARLINK-5626,PAYLOAD,2023-10-12 19:45:07,14.98336793,0.0002779,70.0003,160.368,270.5167,89.5674,-1.9172e-05,-3.22e-06,0.0,0 STARLINK-5626,1 55435U 23014AW  23285.82300889 -.00000322  00000-0 -19172-4 0  9993,2 55435  70.0003 160.3680 0002779 270.5167  89.5674 14.98336793 38486,6950.172,96.107,573.968,570.105,0.0
55435.0,STARLINK-5626,PAYLOAD,2023-10-12 21:21:16,14.98336555,0.0002778,70.0003,160.1996,270.5103,89.5738,-2.0946e-05,-3.43e-06,0.0,0 STARLINK-5626,1 55435U 23014AW  23285.88976885 -.00000343  00000-0 -20946-4 0  9998,2 55435  70.0003 160.1996 0002778 270.5103  89.5738 14.98336555 39436,6950.173,96.107,573.968,570.107,0.0
55435.0,STARLINK-5626,PAYLOAD,2023-10-13 08:34:12,14.98337453,0.000272,70.0003,159.0214,267.8568,92.2279,-3.9996e-05,-5.7e-06,0.0,0 STARLINK-5626,1 55435U 23014AW  23286.35708620 -.00000570  00000-0 -39996-4 0  9998,2 55435  70.0003 159.0214 0002720 267.8568  92.2279 14.98337453 39504,6950.17,96.107,573.925,570.144,0.0
55435.0,STARLINK-5626,PAYLOAD,2023-10-13 21:23:16,14.98338279,0.0002709,70.0001,157.6751,266.0587,94.0262,8.8411e-05,9.62e-06,0.0,0 STARLINK-5626,1 55435U 23014AW  23286.89116137  .00000962  00000-0  88411-4 0  9992,2 55435  70.0001 157.6751 0002709 266.0587  94.0262 14.98338279 38644,6950.167,96.106,573.915,570.149,0.0
55435.0,STARLINK-5626,PAYLOAD,2023-10-14 08:36:13,14.98328424,0.0002095,69.9996,156.4948,279.0111,81.0811,-5.8522e-06,-1.63e-06,0.0,0 STARLINK-5626,1 55435U 23014AW  23287.35849105 -.00000163  00000-0 -58522-5 0  9998,2 55435  69.9996 156.4948 0002095 279.0111  81.0811 14.98328424 38719,6950.198,96.107,573.519,570.607,0.0
55435.0,STARLINK-5626,PAYLOAD,2023-10-14 21:25:18,14.98325209,0.0002766,70.0,155.1504,265.5132,94.5711,-7.9692e-05,-1.044e-05,0.0,0 STARLINK-5626,1 55435U 23014AW  23287.89257306 -.00001044  00000-0 -79692-4 0  9992,2 55435  70.0000 155.1504 0002766 265.5132  94.5711 14.98325209 39739,6950.208,96.107,573.995,570.15,0.0
55435.0,STARLINK-5626,PAYLOAD,2023-10-15 08:38:14,14.98328451,0.000285,69.9996,153.9719,267.419,92.6643,-3.0771e-05,-4.6e-06,0.0,0 STARLINK-5626,1 55435U 23014AW  23288.35989079 -.00000460  00000-0 -30771-4 0  9999,2 55435  69.9996 153.9719 0002850 267.4190  92.6643 14.98328451 38861,6950.198,96.107,574.043,570.082,0.0
55435.0,STARLINK-5626,PAYLOAD,2023-10-15 21:27:18,14.9833323,0.0002939,69.9993,152.6248,267.525,92.5572,-7.2372e-07,-1.02e-06,0.0,0 STARLINK-5626,1 55435U 23014AW  23288.89396717 -.00000102  00000-0 -72372-6 0  9997,2 55435  69.9993 152.6248 0002939 267.5250  92.5572 14.98333230 39881,6950.183,96.107,574.091,570.005,0.0
55435.0,STARLINK-5626,PAYLOAD,2023-10-16 00:39:34,14.98334352,0.0002919,69.9993,152.2884,267.9894,92.0931,1.636e-05,1.02e-06,0.0,0 STARLINK-5626,1 55435U 23014AW  23289.02748603  .00000102  00000-0  16360-4 0  9999,2 55435  69.9993 152.2884 0002919 267.9894  92.0931 14.98334352 38967,6950.179,96.107,574.073,570.016,0.0
55435.0,STARLINK-5626,PAYLOAD,2023-10-16 08:40:15,14.98335683,0.0002868,69.9994,151.4472,268.7445,91.3385,-1.9923e-05,-3.31e-06,0.0,0 STARLINK-5626,1 55435U 23014AW  23289.36128579 -.00000331  00000-0 -19923-4 0  9994,2 55435  69.9994 151.4472 0002868 268.7445  91.3385 14.98335683 39959,6950.175,96.107,574.034,570.047,0.0
55435.0,STARLINK-5626,PAYLOAD,2023-10-16 16:40:55,14.98326343,0.0003051,69.9993,150.6055,270.1451,89.9358,0.0001698,1.933e-05,0.0,0 STARLINK-5626,1 55435U 23014AW  23289.69508721  .00001933  00000-0  16980-3 0  9997,2 55435  69.9993 150.6055 0003051 270.1451  89.9358 14.98326343 40009,6950.204,96.107,574.19,569.949,0.0
55435.0,STARLINK-5626,PAYLOAD,2023-10-17 08:42:16,14.98331255,0.0003017,69.9993,148.9219,269.9015,90.1798,0.00010349,1.142e-05,0.0,0 STARLINK-5626,1 55435U 23014AW  23290.36268589  .00001142  00000-0  10349-3 0  9993,2 55435  69.9993 148.9219 0003017 269.9015  90.1798 14.98331255 40106,6950.189,96.107,574.151,569.957,0.0
55435.0,STARLINK-5626,PAYLOAD,2023-10-18 00:43:36,14.98332697,0.0002955,69.9995,147.2385,269.0506,91.0314,3.5716e-05,3.33e-06,0.0,0 STARLINK-5626,1 55435U 23014AW  23291.03028593  .00000333  00000-0  35716-4 0  9994,2 55435  69.9995 147.2385 0002955 269.0506  91.0314 14.98332697 39260,6950.185,96.107,574.103,569.996,0.0
